ESHAIL-2
1 43700U 18090A   26183.23122860  .00000155  00000-0  00000-0 0  9997
2 43700   0.0187  28.4554 0002254 107.3914 253.4562  1.00272976 27828
K2SAT
1 43761U 18099D   26183.10082518  .00002286  00000-0  15812-3 0  9991
2 43761  97.4169 223.3783 0009642 298.3138  61.7117 15.06629954414359
AISTECHSAT-2
1 43768U 18099L   26182.87882182  .00006973  00000-0  37053-3 0  9994
2 43768  97.4281 230.5917 0003352 232.9123 127.1804 15.15596166414505
SNUSAT-2
1 43782U 18099AA  26183.12651015  .00009880  00000-0  43428-3 0  9991
2 43782  97.4046 236.2819 0008959 236.7813 123.2565 15.22065198415304
ITASAT-1
1 43786U 18099AE  26183.10558688  .00008023  00000-0  38326-3 0  9994
2 43786  97.4016 234.3205 0010886 303.6087  56.4108 15.19241797415174
EAGLET-1
1 43790U 18099AJ  26182.86733525  .00004733  00000-0  27110-3 0  9999
2 43790  97.4220 232.1474 0009496 298.4517  61.5757 15.13049361414559
ESEO
1 43792U 18099AL  26183.01412105  .00001025  00000-0  77713-4 0  9993
2 43792  97.3963 219.7680 0010157 285.5131  74.4974 15.04290052414031
MINXSS-2
1 43758U 18099A   26183.15933696  .00044045  00000-0  84164-3 0  9999
2 43758  97.4529 259.8923 0007873 200.6875 159.4058 15.47949129416448
FOX-1CLIFF (AO-95)
1 43770U 18099N   26183.15097082  .00013279  00000-0  50270-3 0  9999
2 43770  97.4375 243.3441 0006915 296.3718  63.6811 15.27030068415508
CORVUS-BC4
1 43767U 18099K   26182.08100218  .00005142  00000-0  29796-3 0  9991
2 43767  97.4054 224.6547 0006931 321.1885  38.8848 15.12603535414509
CZ-4B R/B
1 43656U 18081B   26183.27883795  .00000105  00000-0  48965-4 0  9993
2 43656  99.3669 102.4077 0204015 223.1119 135.3930 14.31869920401462
COSMOS 2504 [i]
1 40555U 15020D   26183.25347174  .00000200  00000-0  70173-4 0  9994
2 40555  82.5170 219.6502 0606610 233.2983 121.0971 13.61390619552246
MERIDIAN-4
1 37398U 11018A   26139.00142314  .00018884 -16146-6  54036-4 0  9993
2 37398  62.0840  77.5233 7522826 265.8364  14.0990  2.03846506110194
MERIDIAN-6
1 38995U 12063A   26182.55027843  .00000276  00000-0  00000-0 0  9994
2 38995  64.0242 353.1652 7353075 228.2806  40.6154  2.00728936 99798
MERIDIAN-7
1 40296U 14069A   26182.14312145  .00000294  00000-0  00000-0 0  9996
2 40296  63.4502 213.9699 6643054 270.4721  19.8010  2.00595649 85511
METOP-C
1 43689U 18087A   26183.27170560  .00000131  00000-0  79621-4 0  9996
2 43689  98.6637 242.5991 0002144 110.2259 249.9150 14.21516245396979
FENGYUN-3B
1 37214U 10059A   26183.30197780 -.00000117  00000-0 -37383-4 0  9996
2 37214  98.9611 229.3802 0022726 141.5535 309.4158 14.14843593809562
FENGYUN-3C
1 39260U 13052A   26183.23859627  .00000105  00000-0  74557-4 0  9991
2 39260  98.4988 156.4228 0014331 344.9924  15.0824 14.15758540660690
EWS-G1 (GOES-13)
1 29155U 06018A   26183.22641645 -.00000212  00000-0  00000-0 0  9993
2 29155   4.5699  76.2462 0060188 278.6157 335.3123  0.98789230 43398
FENGYUN-2H
1 43491U 18050A   26183.09928707 -.00000120  00000-0  00000-0 0  9991
2 43491   3.0681  78.9055 0001770 121.8031 194.4786  1.00269531 29586
FENGYUN-2G
1 40367U 14090A   26182.90925532 -.00000294  00000-0  00000-0 0  9994
2 40367   5.6746  72.6430 0003603 150.4692 123.7546  1.00267071 42144
INMARSAT 4-F1
1 28628U 05009A   26182.90492270  .00000040  00000-0  00000-0 0  9996
2 28628   5.1866  42.7718 0002953  60.4485 320.6160  1.00271666 77820
INMARSAT 4-F2
1 28899U 05044A   26182.96938517 -.00000253  00000-0  00000-0 0  9997
2 28899   5.1130  43.6646 0003248  47.1892 321.6273  1.00270699 75678
INMARSAT 4-F3
1 33278U 08039A   26183.16850328 -.00000131  00000-0  00000-0 0  9992
2 33278   4.3055  31.6652 0002642  74.3783 136.8228  1.00271202 46691
INMARSAT 4A-F4 (ALPHASAT)
1 39215U 13038A   26183.23105527  .00000144  00000-0  00000-0 0  9999
2 39215   2.9984   1.2103 0002250 112.7149 274.4163  1.00270296 44175
ASTROCAST
1 43798U 18099AS  26183.17409788  .00040687  00000-0  70978-3 0  9991
2 43798  97.4376 262.1479 0005678 162.2094 197.9358 15.50587799416751
JY1SAT (JO-97)
1 43803U 18099AX  26183.10016290  .00021273  00000-0  64498-3 0  9993
2 43803  97.4121 245.9901 0005606 200.3543 159.7477 15.34136694415910
SUOMI-100
1 43804U 18099AY  26183.13169951  .00015147  00000-0  54328-3 0  9994
2 43804  97.4174 243.4719 0009224 218.5665 141.4917 15.28763890415706
GEO-KOMPSAT-2A
1 43823U 18100A   26182.46742068 -.00000334  00000-0  00000-0 0  9997
2 43823   0.0517 181.9048 0002589 289.1691 104.9700  1.00255173 27774
UWE-4
1 43880U 18111E   26183.29050887  .00037505  00000-0  74011-3 0  9990
2 43880  97.5850 112.3872 0004397 256.7047 103.3712 15.47074786413113
D-STAR ONE SPARROW
1 43881U 18111F   26183.29867619  .00225765  00000-0  12144-2 0  9995
2 43881  97.6098 125.6291 0006003 139.0768 221.0950 15.79576145413753
METEOR M2-2
1 44387U 19038A   26183.27732912  .00000329  00000-0  16193-3 0  9997
2 44387  98.9146 170.7859 0001449  25.4616 334.6633 14.24370949363445
MOMENTUS-X1
1 44408U 19038Y   26183.11704229  .00055507  00000-0  50108-3 0  9996
2 44408  97.6736 229.8805 0005228 315.2908  44.7931 15.67965327388894
MERIDIAN-8
1 44453U 19046A   26181.67779922 -.00000059  00000-0  00000-0 0  9992
2 44453  63.1456  49.0155 7079294 274.9042  14.6109  2.00597784 50612
TAURUS-1
1 44530U 19059C   26183.26354418  .00005805  00000-0  92754-3 0  9991
2 44530  98.6425 349.0280 0007354 260.8643  99.1731 14.72250512360868
GAOFEN 12-01
1 44819U 19082A   26183.28693773  .00000485  00000-0  70089-4 0  9996
2 44819  97.8103 189.2678 0001654  55.2747 304.8621 14.80471195356326
CAS-6 (TO-108)
1 44881U 19093C   26183.32459193  .00000238  00000-0  32898-4 0  9990
2 44881  97.7532 255.1874 0014599  41.9444 318.2888 14.86541603353665
ELEKTRO-L3
1 44903U 19095A   26183.16988506 -.00000086  00000-0  00000-0 0  9992
2 44903   0.2944  81.9391 0001656   6.1312 329.2871  1.00272472 23858
DOSAAF-85 (RS-44)
1 44909U 19096E   26183.17231246  .00000005  00000-0 -32954-4 0  9990
2 44909  82.5226 329.7468 0218529 109.2871 253.2006 12.79748910304268
MERIDIAN-9
1 45254U 20015A   26182.42535657 -.00000041  00000-0  00000-0 0  9990
2 45254  65.5382 317.4722 6853020 277.6637  15.5072  2.00605697 46576
DEKART
1 46493U 20068H   26183.30582530  .00013777  00000-0  37413-3 0  9994
2 46493  97.8734 193.6616 0007802 220.0285 140.0384 15.37691019318097
NORBY
1 46494U 20068J   26183.27573978  .00025584  00000-0  47174-3 0  9991
2 46494  97.8619 200.5763 0006867 185.3403 174.7775 15.49101112318547
SALSAT (TUBSAT 22)
1 46495U 20068K   26183.25417133  .00008637  00000-0  29987-3 0  9992
2 46495  97.8847 187.2381 0008038 243.7769 116.2645 15.30013367317667
NETSAT-4
1 46504U 20068U   26182.96506679  .00021218  00000-0  46129-3 0  9991
2 46504  97.8597 192.3974 0003392 253.0481 107.0394 15.44359065318054
NETSAT-3
1 46505U 20068V   26182.98258756  .00022211  00000-0  50200-3 0  9993
2 46505  97.8649 190.6147 0002885 283.0124  77.0800 15.43195093317964
NETSAT-1
1 46506U 20068W   26183.26102793  .00013631  00000-0  40391-3 0  9991
2 46506  97.8745 185.0671 0003139 337.8079  22.3027 15.34987582317610
NETSAT-2
1 46507U 20068X   26182.98406687  .00028502  00000-0  57222-3 0  9993
2 46507  97.8609 192.3682 0001454 311.7447  48.3676 15.46642391318024
ARKTIKA-M1
1 47719U 21016A   26180.95192977 -.00000281  00000-0  00000-0 0  9996
2 47719  63.2520  55.7907 7292818 269.9910  14.5481  2.00617895 39041
UNISAT-7
1 47945U 21022P   26183.22772020  .00016734  00000-0  40849-3 0  9997
2 47945  97.3878  88.3117 0009696  33.4442 326.7415 15.40880816292171
CSS (TIANHE-1)
1 48274U 21035A   26183.07469613  .00005862  00000-0  70552-4 0  9996
2 48274  41.4669 231.3605 0008782 197.5526 162.5011 15.61404719295490
FENGYUN-4B
1 48808U 21047A   26183.24691534 -.00000320  00000-0  00000-0 0  9992
2 48808   0.1884  79.0467 0005763 278.1906 116.6726  1.00270137 18726
CUTE-LASP
1 49263U 21088D   26183.23462249  .00448586  89169-4  86545-3 0  9998
2 49263  97.4101 284.0530 0003325 213.7633 146.3434 16.00429839264951
JILIN-01 GAOFEN 2F
1 49338U 21097A   26183.29874421  .00005552  00000-0  36490-3 0  9995
2 49338  97.6723 309.4628 0018945 172.0643 188.0888 15.07866163258598
TEIKYOSAT-4 (OORURI)
1 49396U 21102B   26183.03538983  .00002045  00000-0  13105-3 0  9990
2 49396  97.3665 211.9415 0010599 237.4640 122.5567 15.09559630254969
Z-SAT
1 49399U 21102E   26183.22425650  .00005359  00000-0  26307-3 0  9999
2 49399  97.3315 218.0909 0016158 188.7274 171.3682 15.18377872255729
KOSEN-1
1 49402U 21102H   26182.69002769  .00008992  00000-0  34054-3 0  9990
2 49402  97.3171 224.5662 0014706 150.6699 209.5369 15.27038812256239
CAMSAT XW-3 (CAS-9)
1 50466U 21131B   26183.25734465  .00000590  00000-0  19594-3 0  9990
2 50466  98.4992 275.5654 0005197  62.8008 297.3710 14.41371480237288
GOES-18
1 51850U 22021A   26183.26774870  .00000107  00000-0  00000-0 0  9995
2 51850   0.0213 199.7886 0000549 300.2471  99.6575  1.00271362  6740
MERIDIAN-10
1 52145U 22030A   26182.42556045  .00000167  00000-0  00000-0 0  9998
2 52145  62.6790 139.2518 6787824 272.8490  17.6305  2.00611817 31318
BRO-6
1 52422U 22047AE  26183.29884854  .00046876  00000-0  78774-3 0  9995
2 52422  97.3402 274.6540 0003683  19.4076 340.7316 15.51622591233499
STEP CUBELAB-II
1 52897U 22065D   26183.31597512  .00000731  00000-0  15082-3 0  9999
2 52897  98.2248 327.1717 0008195 346.9900  13.1089 14.63325942213713
RANDEV
1 52898U 22065E   26183.31304824  .00000748  00000-0  15290-3 0  9991
2 52898  98.2231 327.5271 0007630 348.0727  12.0293 14.63713975213462
SNUGLITE-II
1 52899U 22065F   26183.20026605  .00001087  00000-0  21489-3 0  9992
2 52899  98.2221 328.0055 0006969 346.7047  13.3971 14.64375380213194
MIMAN
1 52900U 22065G   26183.31197573  .00000642  00000-0  13801-3 0  9995
2 52900  98.2281 325.7196 0007181 348.6768  11.4270 14.61860400212651
GREENCUBE (IO-117)
1 53106U 22080B   25167.32760529 -.00000003  00000-0  00000-0 0  9996
2 53106  70.1560  65.9804 0008358  24.6429 335.4629  6.42557409 68669
